[{"OBJECT_NAME":"STARLINK-35256","OBJECT_ID":"2025-232G","EPOCH":"2026-03-09T12:35:51.683136","MEAN_MOTION":15.3020558,"ECCENTRICITY":0.0001243,"INCLINATION":53.1573,"RA_OF_ASC_NODE":104.4402,"ARG_OF_PERICENTER":76.3858,"MEAN_ANOMALY":283.7281,"EPHEMERIS_TYPE":0,"CLASSIFICATION_TYPE":"U","NORAD_CAT_ID":66011,"ELEMENT_SET_NO":999,"REV_AT_EPOCH":2341,"BSTAR":0.000602,"MEAN_MOTION_DOT":0.00017516,"MEAN_MOTION_DDOT":0},{"OBJECT_NAME":"KUIPER-00175","OBJECT_ID":"2025-301C","EPOCH":"2026-03-09T23:30:37.840032","MEAN_MOTION":15.30996371,"ECCENTRICITY":0.00022792,"INCLINATION":51.8781,"RA_OF_ASC_NODE":63.6978,"ARG_OF_PERICENTER":50.5695,"MEAN_ANOMALY":309.549,"EPHEMERIS_TYPE":0,"CLASSIFICATION_TYPE":"U","NORAD_CAT_ID":67135,"ELEMENT_SET_NO":999,"REV_AT_EPOCH":1385,"BSTAR":0.00066732304,"MEAN_MOTION_DOT":0.00019968,"MEAN_MOTION_DDOT":0}]
